{
  "type": "FeatureCollection",
  "features": [
    {
      "type": "Feature",
      "properties": {
        "norad_id": 63772,
        "name": "BIOMASS",
        "group": "resource",
        "lat": -33.24611196154174,
        "lon": -22.739596982699393,
        "alt_km": 675.7373173955102,
        "timestamp": "2025-12-03T10:52:57.107831+00:00",
        "meta_object_name": "BIOMASS",
        "meta_object_id": "2025-090A",
        "meta_epoch": "2025-12-03T01:43:50.691936",
        "meta_mean_motion": 14.67533272,
        "meta_eccentricity": 0.0001159,
        "meta_inclination": 98.0704,
        "meta_ra_of_asc_node": 162.2217,
        "meta_arg_of_pericenter": 74.946,
        "meta_mean_anomaly": 285.1873,
        "meta_ephemeris_type": 0,
        "meta_classification_type": "U",
        "meta_norad_cat_id": 63772,
        "meta_element_set_no": 999,
        "meta_rev_at_epoch": 3192,
        "meta_bstar": 0.00034239,
        "meta_mean_motion_dot": 1.894e-05,
        "meta_mean_motion_ddot": 0,
        "tle_line1": "1 63772U 25090A   25337.07211449  .00001894  00000+0  34239-3 0  9994",
        "tle_line2": "2 63772  98.0704 162.2217 0001159  74.9460 285.1873 14.67533272 31921"
      },
      "geometry": {
        "type": "Point",
        "coordinates": [
          -22.739596982699393,
          -33.24611196154174
        ]
      }
    },
    {
      "type": "Feature",
      "properties": {
        "norad_id": 64694,
        "name": "GOSAT-GW (IBUKI GW)",
        "group": "resource",
        "lat": 61.15945496373553,
        "lon": -101.73914741017005,
        "alt_km": 661.8785474151209,
        "timestamp": "2025-12-03T10:52:57.107841+00:00",
        "meta_object_name": "GOSAT-GW (IBUKI GW)",
        "meta_object_id": "2025-141A",
        "meta_epoch": "2025-11-30T05:41:32.267328",
        "meta_mean_motion": 14.67567435,
        "meta_eccentricity": 0.00014369,
        "meta_inclination": 98.0401,
        "meta_ra_of_asc_node": 269.9775,
        "meta_arg_of_pericenter": 82.921,
        "meta_mean_anomaly": 277.2158,
        "meta_ephemeris_type": 0,
        "meta_classification_type": "U",
        "meta_norad_cat_id": 64694,
        "meta_element_set_no": 999,
        "meta_rev_at_epoch": 2266,
        "meta_bstar": 0.00019762357,
        "meta_mean_motion_dot": 1.074e-05,
        "meta_mean_motion_ddot": 0,
        "tle_line1": "1 64694U 25141A   25334.23717902  .00001074  00000+0  19762-3 0  9999",
        "tle_line2": "2 64694  98.0401 269.9775 0001436  82.9210 277.2158 14.67567435 22660"
      },
      "geometry": {
        "type": "Point",
        "coordinates": [
          -101.73914741017005,
          61.15945496373553
        ]
      }
    },
    {
      "type": "Feature",
      "properties": {
        "norad_id": 64876,
        "name": "IONOSFERA-M 3",
        "group": "resource",
        "lat": 15.620746903698365,
        "lon": 122.00136957328263,
        "alt_km": 821.1791922386483,
        "timestamp": "2025-12-03T10:52:57.107852+00:00",
        "meta_object_name": "IONOSFERA-M 3",
        "meta_object_id": "2025-155A",
        "meta_epoch": "2025-12-03T05:02:42.531072",
        "meta_mean_motion": 14.2143708,
        "meta_eccentricity": 0.0002396,
        "meta_inclination": 98.5769,
        "meta_ra_of_asc_node": 299.3467,
        "meta_arg_of_pericenter": 74.8507,
        "meta_mean_anomaly": 285.2936,
        "meta_ephemeris_type": 0,
        "meta_classification_type": "U",
        "meta_norad_cat_id": 64876,
        "meta_element_set_no": 999,
        "meta_rev_at_epoch": 1856,
        "meta_bstar": 6.9571e-05,
        "meta_mean_motion_dot": 1.09e-06,
        "meta_mean_motion_ddot": 0,
        "tle_line1": "1 64876U 25155A   25337.21021448  .00000109  00000+0  69571-4 0  9992",
        "tle_line2": "2 64876  98.5769 299.3467 0002396  74.8507 285.2936 14.21437080 18563"
      },
      "geometry": {
        "type": "Point",
        "coordinates": [
          122.00136957328263,
          15.620746903698365
        ]
      }
    },
    {
      "type": "Feature",
      "properties": {
        "norad_id": 64877,
        "name": "IONOSFERA-M 4",
        "group": "resource",
        "lat": -15.279159906251373,
        "lon": -58.13449082692903,
        "alt_km": 825.1253818710402,
        "timestamp": "2025-12-03T10:52:57.107862+00:00",
        "meta_object_name": "IONOSFERA-M 4",
        "meta_object_id": "2025-155B",
        "meta_epoch": "2025-12-03T04:11:51.049824",
        "meta_mean_motion": 14.21438168,
        "meta_eccentricity": 0.0001751,
        "meta_inclination": 98.5768,
        "meta_ra_of_asc_node": 299.2321,
        "meta_arg_of_pericenter": 73.3057,
        "meta_mean_anomaly": 286.8312,
        "meta_ephemeris_type": 0,
        "meta_classification_type": "U",
        "meta_norad_cat_id": 64877,
        "meta_element_set_no": 999,
        "meta_rev_at_epoch": 1855,
        "meta_bstar": 7.5649e-05,
        "meta_mean_motion_dot": 1.23e-06,
        "meta_mean_motion_ddot": 0,
        "tle_line1": "1 64877U 25155B   25337.17489641  .00000123  00000+0  75649-4 0  9990",
        "tle_line2": "2 64877  98.5768 299.2321 0001751  73.3057 286.8312 14.21438168 18551"
      },
      "geometry": {
        "type": "Point",
        "coordinates": [
          -58.13449082692903,
          -15.279159906251373
        ]
      }
    },
    {
      "type": "Feature",
      "properties": {
        "norad_id": 64899,
        "name": "MICROCARB",
        "group": "resource",
        "lat": -68.95669767857716,
        "lon": -148.5032818509294,
        "alt_km": 659.2050187274781,
        "timestamp": "2025-12-03T10:52:57.107873+00:00",
        "meta_object_name": "MICROCARB",
        "meta_object_id": "2025-156A",
        "meta_epoch": "2025-12-03T04:51:17.943264",
        "meta_mean_motion": 14.72030926,
        "meta_eccentricity": 0.0016515,
        "meta_inclination": 98.0035,
        "meta_ra_of_asc_node": 52.7004,
        "meta_arg_of_pericenter": 174.3539,
        "meta_mean_anomaly": 185.7857,
        "meta_ephemeris_type": 0,
        "meta_classification_type": "U",
        "meta_norad_cat_id": 64899,
        "meta_element_set_no": 999,
        "meta_rev_at_epoch": 1913,
        "meta_bstar": 0.00017719,
        "meta_mean_motion_dot": 1.065e-05,
        "meta_mean_motion_ddot": 0,
        "tle_line1": "1 64899U 25156A   25337.20229101  .00001065  00000+0  17719-3 0  9991",
        "tle_line2": "2 64899  98.0035  52.7004 0016515 174.3539 185.7857 14.72030926 19130"
      },
      "geometry": {
        "type": "Point",
        "coordinates": [
          -148.5032818509294,
          -68.95669767857716
        ]
      }
    },
    {
      "type": "Feature",
      "properties": {
        "norad_id": 64900,
        "name": "CO3D 3",
        "group": "resource",
        "lat": 1.3012326023943381,
        "lon": 52.79449171817348,
        "alt_km": 611.6174278215149,
        "timestamp": "2025-12-03T10:52:57.107883+00:00",
        "meta_object_name": "CO3D 3",
        "meta_object_id": "2025-156B",
        "meta_epoch": "2025-11-29T13:08:11.122944",
        "meta_mean_motion": 15.11495615,
        "meta_eccentricity": 0.01368669,
        "meta_inclination": 97.6723,
        "meta_ra_of_asc_node": 49.0485,
        "meta_arg_of_pericenter": 160.1625,
        "meta_mean_anomaly": 200.5002,
        "meta_ephemeris_type": 0,
        "meta_classification_type": "U",
        "meta_norad_cat_id": 64900,
        "meta_element_set_no": 999,
        "meta_rev_at_epoch": 1920,
        "meta_bstar": 0.00046350794,
        "meta_mean_motion_dot": 9.779e-05,
        "meta_mean_motion_ddot": 0,
        "tle_line1": "1 64900U 25156B   25333.54735096  .00009779  00000+0  46351-3 0  9996",
        "tle_line2": "2 64900  97.6723  49.0485 0136866 160.1625 200.5002 15.11495615 19205"
      },
      "geometry": {
        "type": "Point",
        "coordinates": [
          52.79449171817348,
          1.3012326023943381
        ]
      }
    },
    {
      "type": "Feature",
      "properties": {
        "norad_id": 64901,
        "name": "CO3D 4",
        "group": "resource",
        "lat": 55.3969197559919,
        "lon": -115.13441980380506,
        "alt_km": 500.2612842454855,
        "timestamp": "2025-12-03T10:52:57.107893+00:00",
        "meta_object_name": "CO3D 4",
        "meta_object_id": "2025-156C",
        "meta_epoch": "2025-12-01T18:50:45.474720",
        "meta_mean_motion": 15.20204195,
        "meta_eccentricity": 0.00012108,
        "meta_inclination": 97.4354,
        "meta_ra_of_asc_node": 52.3098,
        "meta_arg_of_pericenter": 238.3057,
        "meta_mean_anomaly": 121.806,
        "meta_ephemeris_type": 0,
        "meta_classification_type": "U",
        "meta_norad_cat_id": 64901,
        "meta_element_set_no": 999,
        "meta_rev_at_epoch": 1954,
        "meta_bstar": -1.4420799e-05,
        "meta_mean_motion_dot": -3.8e-06,
        "meta_mean_motion_ddot": 0,
        "tle_line1": "1 64901U 25156C   25335.78524855 -.00000380  00000+0 -14421-4 0  9999",
        "tle_line2": "2 64901  97.4354  52.3098 0001210 238.3057 121.8060 15.20204195 19549"
      },
      "geometry": {
        "type": "Point",
        "coordinates": [
          -115.13441980380506,
          55.3969197559919
        ]
      }
    }
  ]
}